ONEWEB-0620             
1 55161U 23004X   24193.46938213 -.00000351  00000+0 -10252-2 0  9994
2 55161  87.8973 161.5586 0001701  95.2435 264.8888 13.11416525 73330
ONEWEB-0621             
1 55162U 23004Y   24194.18317721 -.00000239  00000+0 -71080-3 0  9992
2 55162  87.8973 161.3855 0002356  87.6626 272.4772 13.11419704 73432
ONEWEB-0622             
1 55163U 23004Z   24194.18826869 -.00000072  00000+0 -23791-3 0  9992
2 55163  87.8974 161.4008 0002002 110.4292 249.7051 13.11420085 73405
ONEWEB-0623             
1 55164U 23004AA  24193.41954669  .00000089  00000+0  19486-3 0  9990
2 55164  87.9185 146.4099 0002302 105.0897 255.0490 13.17653090 74642
ONEWEB-0624             
1 55165U 23004AB  24194.53466702 -.00000175  00000+0 -52251-3 0  9996
2 55165  87.8959 130.9701 0002107  85.3722 274.7647 13.12442852 75627
ONEWEB-0625             
1 55166U 23004AC  24194.16761940  .00000091  00000+0  20136-3 0  9990
2 55166  87.9185 146.2600 0002359  78.6661 281.4736 13.17647386 74733
ONEWEB-0626             
1 55167U 23004AD  24194.15792584  .00000061  00000+0  12360-3 0  9995
2 55167  87.9185 146.2625 0001549  80.7142 279.4164 13.17649163 74736
ONEWEB-0627             
1 55168U 23004AE  24194.14661379  .00000052  00000+0  99603-4 0  9998
2 55168  87.9185 146.2659 0002014 101.8693 258.2665 13.17647938 74737
